STARLINK-33628          
1 63067U 25035R   26068.27333708  .00023021  00000+0  84325-3 0  9994
2 63067  42.9927 149.6335 0002593 157.1394 202.9573 15.27586768 59666
TEVEL2-3                
1 63218U 25052J   26068.64540225  .00020365  00000+0  69446-3 0  9991
2 63218  97.3994 324.7775 0004761 105.7353 254.4413 15.30377031 54855
